O3B FM20                
1 44112U 19020A   26066.06789383 -.00000026  00000+0  00000+0 0  9995
2 44112   0.0518 359.7050 0002796 334.4568  25.8192  5.00115512126460
O3B FM19                
1 44113U 19020B   26065.89512278 -.00000026  00000+0  00000+0 0  9993
2 44113   0.0567 352.2118 0004311 343.7320  24.0309  5.00115814126323
O3B FM17                
1 44114U 19020C   26066.17507053 -.00000026  00000+0  00000+0 0  9991
2 44114   0.0391 340.4875 0002681   0.5384  18.9591  5.00115488126416
O3B FM18                
1 44115U 19020D   26062.52332968 -.00000028  00000+0  00000+0 0  9990
2 44115   0.0519   0.0145 0002751 341.7220  18.2467  5.00115242126362
SALSAT                  
1 46495U 20068K   26066.51222839  .00013690  00000+0  50125-3 0  9990
2 46495  97.8857  63.5159 0008413 306.1351  53.9108 15.28132776299826
O3B MPOWER F1           
1 54755U 22174A   26066.27225620 -.00000026  00000+0  00000+0 0  9995
2 54755   0.0639 350.7406 0005215  12.8947 128.1243  5.00103076 60262
O3B MPOWER F2           
1 54756U 22174B   26062.53384886 -.00000028  00000+0  00000+0 0  9993
2 54756   0.1272 326.2177 0046125  76.0907 318.0389  5.00690325 60150
O3B MPOWER F4           
1 56367U 23059A   26048.24074746 -.00000015  00000+0  00000+0 0  9995
2 56367   0.0593   7.9241 0006460 334.3658  17.6828  5.00119607 52601
